BEIDOU-3 G1 (C59)       
1 43683U 18085A   26117.22007337 -.00000117  00000+0  00000+0 0  9995
2 43683   2.9471  98.7246 0007393 333.3417  22.2927  1.00265507 27549
COSMOS 2529 (757)       
1 43687U 18086A   26113.27787794 -.00000007  00000+0  00000+0 0  9991
2 43687  64.2929 194.4473 0010094 254.9023 105.0366  2.13101977 58110
BEIDOU-3 M17 (C36)      
1 43706U 18093A   26116.23519557 -.00000002  00000+0  00000+0 0  9995
2 43706  54.1668 184.0590 0009019 291.5360  74.8287  1.86228400 50578
BEIDOU-3 M18 (C37)      
1 43707U 18093B   26117.16247674  .00000010  00000+0  00000+0 0  9995
2 43707  54.1675 184.0196 0007083 324.7692  35.2480  1.86226384 50581
GPS BIII-1  (PRN 04)    
1 43873U 18109A   26116.40139615  .00000039  00000+0  00000+0 0  9999
2 43873  55.6514  94.2279 0037898 198.8751 333.4999  2.00559161 54031
BEIDOU-3 IGSO-1 (C38)   
1 44204U 19023A   26110.03709628 -.00000228  00000+0  00000+0 0  9995
2 44204  58.6186  38.2497 0024357 235.9811  64.3555  1.00256582  6624
BEIDOU-2 G8 (C01)       
1 44231U 19027A   26116.90600215 -.00000258  00000+0  00000+0 0  9996
2 44231   1.5301  74.3741 0011017 279.3405 331.8476  1.00268161 25567
COSMOS 2534 (758)       
1 44299U 19030A   26116.85783661 -.00000008  00000+0  00000+0 0  9998
2 44299  64.3659 194.3442 0011902 276.6349  84.2499  2.13102216 53833
BEIDOU-3 IGSO-2 (C39)   
1 44337U 19035A   26117.01669462 -.00000091  00000+0  00000+0 0  9999
2 44337  55.2356 159.3113 0039369 215.1323 326.1005  1.00282395 25159
GPS BIII-2  (PRN 18)    
1 44506U 19056A   26117.03436080 -.00000081  00000+0  00000+0 0  9999
2 44506  55.6599 333.1752 0059578 197.4088 334.1665  2.00569164 49043
BEIDOU-3 M24 (C46)      
1 44542U 19061A   26116.69481519  .00000003  00000+0  00000+0 0  9996
2 44542  54.3940 184.4646 0008047   6.3998 353.6719  1.86228939 44834
BEIDOU-3 M23 (C45)      
1 44543U 19061B   26116.27266917 -.00000002  00000+0  00000+0 0  9994
2 44543  54.3929 184.4471 0005040 348.5066   0.4603  1.86227142 44828
EUTELSAT 5 WEST B (EGN*)
1 44624U 19067A   26117.22822619 -.00000052  00000+0  00000+0 0  9998
2 44624   0.0693  11.9053 0003183  24.7405 255.7273  1.00271585 23922
BEIDOU-3 IGSO-3 (C40)   
1 44709U 19073A   26115.86310865 -.00000195  00000+0  00000+0 0  9990
2 44709  54.8923 281.4605 0042116 188.7957 171.0495  1.00252806 23930
BEIDOU-3 M22 (C44)      
1 44793U 19078A   26115.99699650 -.00000055  00000+0  00000+0 0  9999
2 44793  53.9841 301.6629 0007305  45.8856 314.1715  1.86226949 43676
BEIDOU-3 M21 (C43)      
1 44794U 19078B   26116.67401454 -.00000060  00000+0  00000+0 0  9995
2 44794  53.9567 301.6016 0005184  43.3217 316.7148  1.86227493 43694
COSMOS 2544 (759)       
1 44850U 19088A   26112.65642860  .00000025  00000+0  00000+0 0  9991
2 44850  65.5361  75.5832 0015132 261.9687  97.8399  2.13101758 49534
